SENTINEL-2B             
1 42063U 17013A   20303.28446921  .00000004  00000-0  18287-4 0  9995
2 42063  98.5677  15.5989 0001219 102.3457 257.7868 14.30819159190511
